{"fetched_at":"2026-07-19T07:04:50.778Z","source":"https://celestrak.org/NORAD/elements/gp.php?GROUP=planet&FORMAT=JSON","constellation":"skysat","records":[{"OBJECT_NAME":"SKYSAT-A","OBJECT_ID":"2013-066C","EPOCH":"2026-07-18T16:05:49.350912","CLASSIFICATION_TYPE":"U","MEAN_MOTION":15.13125428,"ECCENTRICITY":0.0020793,"INCLINATION":97.3799,"RA_OF_ASC_NODE":248.0646,"ARG_OF_PERICENTER":200.9298,"MEAN_ANOMALY":159.1085,"EPHEMERIS_TYPE":0,"NORAD_CAT_ID":39418,"ELEMENT_SET_NO":999,"REV_AT_EPOCH":69324,"BSTAR":0.000081642,"MEAN_MOTION_DOT":0.00001389,"MEAN_MOTION_DDOT":0},{"OBJECT_NAME":"SKYSAT-B","OBJECT_ID":"2014-037D","EPOCH":"2026-07-18T19:06:27.506016","CLASSIFICATION_TYPE":"U","MEAN_MOTION":14.88096601,"ECCENTRICITY":0.0005858,"INCLINATION":98.3856,"RA_OF_ASC_NODE":160.5681,"ARG_OF_PERICENTER":161.787,"MEAN_ANOMALY":198.3555,"EPHEMERIS_TYPE":0,"NORAD_CAT_ID":40072,"ELEMENT_SET_NO":999,"REV_AT_EPOCH":65066,"BSTAR":0.000068368,"MEAN_MOTION_DOT":0.00000567,"MEAN_MOTION_DDOT":0},{"OBJECT_NAME":"SKYSAT-C1","OBJECT_ID":"2016-040C","EPOCH":"2026-07-18T19:13:28.576416","CLASSIFICATION_TYPE":"U","MEAN_MOTION":15.36783549,"ECCENTRICITY":0.0000422,"INCLINATION":96.9549,"RA_OF_ASC_NODE":229.8149,"ARG_OF_PERICENTER":211.1018,"MEAN_ANOMALY":149.0202,"EPHEMERIS_TYPE":0,"NORAD_CAT_ID":41601,"ELEMENT_SET_NO":999,"REV_AT_EPOCH":56272,"BSTAR":0.00013746,"MEAN_MOTION_DOT":0.00004865,"MEAN_MOTION_DDOT":0},{"OBJECT_NAME":"SKYSAT-C4","OBJECT_ID":"2016-058B","EPOCH":"2026-07-18T20:32:04.678080","CLASSIFICATION_TYPE":"U","MEAN_MOTION":15.49511206,"ECCENTRICITY":0.0003536,"INCLINATION":96.9169,"RA_OF_ASC_NODE":220.3204,"ARG_OF_PERICENTER":113.2946,"MEAN_ANOMALY":246.8678,"EPHEMERIS_TYPE":0,"NORAD_CAT_ID":41771,"ELEMENT_SET_NO":999,"REV_AT_EPOCH":55037,"BSTAR":0.00018286,"MEAN_MOTION_DOT":0.00009989,"MEAN_MOTION_DDOT":0},{"OBJECT_NAME":"SKYSAT-C5","OBJECT_ID":"2016-058C","EPOCH":"2026-07-18T20:45:26.362080","CLASSIFICATION_TYPE":"U","MEAN_MOTION":15.33747628,"ECCENTRICITY":0.0002949,"INCLINATION":97.0451,"RA_OF_ASC_NODE":239.0806,"ARG_OF_PERICENTER":151.1874,"MEAN_ANOMALY":208.9533,"EPHEMERIS_TYPE":0,"NORAD_CAT_ID":41772,"ELEMENT_SET_NO":999,"REV_AT_EPOCH":54860,"BSTAR":0.0001173,"MEAN_MOTION_DOT":0.00003754,"MEAN_MOTION_DDOT":0},{"OBJECT_NAME":"SKYSAT-C2","OBJECT_ID":"2016-058D","EPOCH":"2026-07-18T18:56:04.282080","CLASSIFICATION_TYPE":"U","MEAN_MOTION":15.42728957,"ECCENTRICITY":0.0000942,"INCLINATION":97.016,"RA_OF_ASC_NODE":220.7072,"ARG_OF_PERICENTER":331.9832,"MEAN_ANOMALY":28.1366,"EPHEMERIS_TYPE":0,"NORAD_CAT_ID":41773,"ELEMENT_SET_NO":999,"REV_AT_EPOCH":54992,"BSTAR":0.00015037,"MEAN_MOTION_DOT":0.00006485,"MEAN_MOTION_DDOT":0},{"OBJECT_NAME":"SKYSAT-C3","OBJECT_ID":"2016-058E","EPOCH":"2026-07-18T12:27:03.497472","CLASSIFICATION_TYPE":"U","MEAN_MOTION":15.53801896,"ECCENTRICITY":0.00027014,"INCLINATION":96.8991,"RA_OF_ASC_NODE":229.1846,"ARG_OF_PERICENTER":129.3372,"MEAN_ANOMALY":230.8123,"EPHEMERIS_TYPE":0,"NORAD_CAT_ID":41774,"ELEMENT_SET_NO":999,"REV_AT_EPOCH":55097,"BSTAR":0.0002082785,"MEAN_MOTION_DOT":0.00013282,"MEAN_MOTION_DDOT":0},{"OBJECT_NAME":"SKYSAT-C11","OBJECT_ID":"2017-068A","EPOCH":"2026-07-17T22:29:10.631904","CLASSIFICATION_TYPE":"U","MEAN_MOTION":15.59422768,"ECCENTRICITY":0.00012891,"INCLINATION":97.4388,"RA_OF_ASC_NODE":349.1483,"ARG_OF_PERICENTER":155.4215,"MEAN_ANOMALY":204.7103,"EPHEMERIS_TYPE":0,"NORAD_CAT_ID":42987,"ELEMENT_SET_NO":999,"REV_AT_EPOCH":48803,"BSTAR":0.00021849398,"MEAN_MOTION_DOT":0.00017166,"MEAN_MOTION_DDOT":0},{"OBJECT_NAME":"SKYSAT-C10","OBJECT_ID":"2017-068B","EPOCH":"2026-07-18T20:17:36.744288","CLASSIFICATION_TYPE":"U","MEAN_MOTION":15.35160017,"ECCENTRICITY":0.0001515,"INCLINATION":97.4546,"RA_OF_ASC_NODE":337.0195,"ARG_OF_PERICENTER":111.4367,"MEAN_ANOMALY":248.7038,"EPHEMERIS_TYPE":0,"NORAD_CAT_ID":42988,"ELEMENT_SET_NO":999,"REV_AT_EPOCH":48721,"BSTAR":0.00017493,"MEAN_MOTION_DOT":0.00005887,"MEAN_MOTION_DDOT":0},{"OBJECT_NAME":"SKYSAT-C9","OBJECT_ID":"2017-068C","EPOCH":"2026-07-18T20:14:00.371040","CLASSIFICATION_TYPE":"U","MEAN_MOTION":15.42267528,"ECCENTRICITY":0.0008324,"INCLINATION":97.4468,"RA_OF_ASC_NODE":338.2593,"ARG_OF_PERICENTER":32.9029,"MEAN_ANOMALY":327.2734,"EPHEMERIS_TYPE":0,"NORAD_CAT_ID":42989,"ELEMENT_SET_NO":999,"REV_AT_EPOCH":48763,"BSTAR":0.00016521,"MEAN_MOTION_DOT":0.00007023,"MEAN_MOTION_DDOT":0},{"OBJECT_NAME":"SKYSAT-C8","OBJECT_ID":"2017-068D","EPOCH":"2026-07-18T19:59:57.862176","CLASSIFICATION_TYPE":"U","MEAN_MOTION":15.3753334,"ECCENTRICITY":0.0001252,"INCLINATION":97.4564,"RA_OF_ASC_NODE":336.9289,"ARG_OF_PERICENTER":104.667,"MEAN_ANOMALY":255.4713,"EPHEMERIS_TYPE":0,"NORAD_CAT_ID":42990,"ELEMENT_SET_NO":999,"REV_AT_EPOCH":48717,"BSTAR":0.00015424,"MEAN_MOTION_DOT":0.00005594,"MEAN_MOTION_DDOT":0},{"OBJECT_NAME":"SKYSAT-C7","OBJECT_ID":"2017-068E","EPOCH":"2026-07-18T19:52:11.201952","CLASSIFICATION_TYPE":"U","MEAN_MOTION":15.37483144,"ECCENTRICITY":0.0005373,"INCLINATION":97.4574,"RA_OF_ASC_NODE":337.9153,"ARG_OF_PERICENTER":8.9313,"MEAN_ANOMALY":351.2026,"EPHEMERIS_TYPE":0,"NORAD_CAT_ID":42991,"ELEMENT_SET_NO":999,"REV_AT_EPOCH":48723,"BSTAR":0.00015397,"MEAN_MOTION_DOT":0.00005577,"MEAN_MOTION_DDOT":0},{"OBJECT_NAME":"SKYSAT-C6","OBJECT_ID":"2017-068F","EPOCH":"2026-07-18T17:09:42.498144","CLASSIFICATION_TYPE":"U","MEAN_MOTION":15.34204439,"ECCENTRICITY":0.0005025,"INCLINATION":97.4612,"RA_OF_ASC_NODE":337.6383,"ARG_OF_PERICENTER":80.5471,"MEAN_ANOMALY":279.634,"EPHEMERIS_TYPE":0,"NORAD_CAT_ID":42992,"ELEMENT_SET_NO":999,"REV_AT_EPOCH":48715,"BSTAR":0.00014443,"MEAN_MOTION_DOT":0.00004701,"MEAN_MOTION_DDOT":0},{"OBJECT_NAME":"SKYSAT-C12","OBJECT_ID":"2018-099AR","EPOCH":"2026-07-18T19:19:18.867072","CLASSIFICATION_TYPE":"U","MEAN_MOTION":15.4986214,"ECCENTRICITY":0.0005081,"INCLINATION":96.9255,"RA_OF_ASC_NODE":221.7897,"ARG_OF_PERICENTER":62.424,"MEAN_ANOMALY":297.7528,"EPHEMERIS_TYPE":0,"NORAD_CAT_ID":43797,"ELEMENT_SET_NO":999,"REV_AT_EPOCH":42675,"BSTAR":0.0001864,"MEAN_MOTION_DOT":0.00010313,"MEAN_MOTION_DDOT":0}]}
