SKYSAT-A                
1 39418U 13066C   26199.67071008  .00001389  00000+0  81642-4 0  9992
2 39418  97.3799 248.0646 0020793 200.9298 159.1085 15.13125428693247
SKYSAT-B                
1 40072U 14037D   26199.79615169  .00000567  00000+0  68368-4 0  9991
2 40072  98.3856 160.5681 0005858 161.7870 198.3555 14.88096601650669
SKYSAT-C1               
1 41601U 16040C   26199.80102519  .00004865  00000+0  13746-3 0  9992
2 41601  96.9549 229.8149 0000422 211.1018 149.0202 15.36783549562724
SKYSAT-C4               
1 41771U 16058B   26199.85560970  .00009989  00000+0  18286-3 0  9999
2 41771  96.9169 220.3204 0003536 113.2946 246.8678 15.49511206550373
SKYSAT-C5               
1 41772U 16058C   26199.86488845  .00003754  00000+0  11730-3 0  9992
2 41772  97.0451 239.0806 0002949 151.1874 208.9533 15.33747628548607
SKYSAT-C2               
1 41773U 16058D   26199.78893845  .00006485  00000+0  15037-3 0  9992
2 41773  97.0160 220.7072 0000942 331.9832  28.1366 15.42728957549926
SKYSAT-C3               
1 41774U 16058E   26199.51879048  .00013282  00000+0  20828-3 0  9990
2 41774  96.8991 229.1846 0002701 129.3372 230.8123 15.53801896550977
SKYSAT-C11              
1 42987U 17068A   26198.93692861  .00017166  00000+0  21849-3 0  9999
2 42987  97.4388 349.1483 0001289 155.4215 204.7103 15.59422768488035
SKYSAT-C10              
1 42988U 17068B   26199.84556417  .00005887  00000+0  17493-3 0  9994
2 42988  97.4546 337.0195 0001515 111.4367 248.7038 15.35160017487214
SKYSAT-C9               
1 42989U 17068C   26199.84305985  .00007023  00000+0  16521-3 0  9992
2 42989  97.4468 338.2593 0008324  32.9029 327.2734 15.42267528487635
SKYSAT-C8               
1 42990U 17068D   26199.83330859  .00005594  00000+0  15424-3 0  9993
2 42990  97.4564 336.9289 0001252 104.6670 255.4713 15.37533340487173
SKYSAT-C7               
1 42991U 17068E   26199.82790743  .00005577  00000+0  15397-3 0  9995
2 42991  97.4574 337.9153 0005373   8.9313 351.2026 15.37483144487239
SKYSAT-C6               
1 42992U 17068F   26199.71507521  .00004701  00000+0  14443-3 0  9993
2 42992  97.4612 337.6383 0005025  80.5471 279.6340 15.34204439487158
SKYSAT-C12              
1 43797U 18099AR  26199.80507948  .00010313  00000+0  18640-3 0  9994
2 43797  96.9255 221.7897 0005081  62.4240 297.7528 15.49862140426750
